[{"OBJECT_NAME":"SKYSAT-C6","OBJECT_ID":"2017-068F","EPOCH":"2026-03-09T21:33:49.392576","MEAN_MOTION":15.32504544,"ECCENTRICITY":0.00036369,"INCLINATION":97.44,"RA_OF_ASC_NODE":205.7173,"ARG_OF_PERICENTER":127.5085,"MEAN_ANOMALY":232.6488,"EPHEMERIS_TYPE":0,"CLASSIFICATION_TYPE":"U","NORAD_CAT_ID":42992,"ELEMENT_SET_NO":999,"REV_AT_EPOCH":46710,"BSTAR":0.00039699196,"MEAN_MOTION_DOT":0.0001239,"MEAN_MOTION_DDOT":0},{"OBJECT_NAME":"STARLINK-34151","OBJECT_ID":"2025-110AA","EPOCH":"2026-03-09T06:28:33.128832","MEAN_MOTION":15.3020625,"ECCENTRICITY":0.00011328,"INCLINATION":53.1611,"RA_OF_ASC_NODE":29.032,"ARG_OF_PERICENTER":98.8965,"MEAN_ANOMALY":261.2164,"EPHEMERIS_TYPE":0,"CLASSIFICATION_TYPE":"U","NORAD_CAT_ID":64120,"ELEMENT_SET_NO":999,"REV_AT_EPOCH":4581,"BSTAR":0.0010903078,"MEAN_MOTION_DOT":0.00032078,"MEAN_MOTION_DDOT":0}]
